KUIPER-00157            
1 65970U 25228Z   25298.93441208  .00043687  00000+0  13018-2 0  9995
2 65970  51.8813 250.8964 0005715 194.2379 165.8446 15.34232347  3070
